{"type": "FeatureCollection", "features": [{"type": "Feature", "properties": {"name": "Krakow", "source": "geoBoundaries (gbOpen) POL ADM3"}, "geometry": {"type": "Polygon", "coordinates": [[[20.2090788, 50.1155647], [20.20398, 50.1159551], [20.2047773, 50.1173857], [20.2016194, 50.1174845], [20.201315, 50.1204716], [20.1954917, 50.118492], [20.1925024, 50.119634], [20.1853551, 50.1167595], [20.1824523, 50.1178363], [20.1815679, 50.1166267], [20.1749363, 50.1197894], [20.1731928, 50.1188233], [20.1723942, 50.1203856], [20.1590596, 50.1216058], [20.1563415, 50.1185696], [20.1543409, 50.1194577], [20.1468814, 50.1143438], [20.1431143, 50.1064684], [20.1208436, 50.108459], [20.1199843, 50.1164544], [20.1083761, 50.116733], [20.0962474, 50.1193493], [20.0941148, 50.1147935], [20.0881601, 50.1134611], [20.0879415, 50.1113638], [20.0782645, 50.1083009], [20.0754935, 50.1094895], [20.0789653, 50.1124076], [20.0702651, 50.1127303], [20.070112, 50.1138713], [20.0616169, 50.1135033], [20.0584777, 50.1146945], [20.056429, 50.1126015], [20.0535016, 50.1128233], [20.0518694, 50.1106397], [20.046945, 50.1093145], [20.0419201, 50.1134866], [20.0372276, 50.1128225], [20.0357976, 50.1086157], [20.0316252, 50.1078854], [20.0276286, 50.1043586], [20.0242413, 50.1039435], [20.0175664, 50.1064441], [20.0045919, 50.1071566], [19.9807196, 50.1049607], [19.9632843, 50.1102149], [19.9580995, 50.1083238], [19.9473339, 50.1193385], [19.9413118, 50.1190391], [19.939974, 50.1162457], [19.9277364, 50.113509], [19.9272873, 50.1146219], [19.9249411, 50.1140731], [19.9260292, 50.1081195], [19.9293568, 50.1077074], [19.9275991, 50.1103925], [19.9310637, 50.1086264], [19.9293572, 50.1066499], [19.9307884, 50.104812], [19.9288719, 50.1037316], [19.926971, 50.1048116], [19.918853, 50.1001876], [19.9151089, 50.1009326], [19.9086826, 50.1178065], [19.9046893, 50.1221186], [19.8983163, 50.1261332], [19.8925033, 50.1260809], [19.8925564, 50.1243443], [19.8904671, 50.1240076], [19.8914088, 50.1225089], [19.8844237, 50.1221565], [19.8807842, 50.1204901], [19.8752732, 50.1110458], [19.8673644, 50.1074484], [19.8633191, 50.1073318], [19.8618268, 50.1059494], [19.8643373, 50.1017452], [19.8673733, 50.0991795], [19.8615818, 50.0926602], [19.8518766, 50.09443], [19.8430985, 50.0923859], [19.8343746, 50.0883099], [19.829828, 50.0881164], [19.823283, 50.0825909], [19.8094315, 50.0793703], [19.8059777, 50.0720906], [19.8016969, 50.0692124], [19.8045341, 50.0622526], [19.809293, 50.0610013], [19.8112021, 50.0584571], [19.8159022, 50.0593518], [19.8219608, 50.0582224], [19.8194993, 50.0514606], [19.8106353, 50.0406562], [19.8157146, 50.0337], [19.8210675, 50.0318898], [19.8263244, 50.032407], [19.8291006, 50.0258168], [19.8277084, 50.0237589], [19.819451, 50.0203863], [19.815174, 50.0215123], [19.8103093, 50.0263768], [19.8058965, 50.0260906], [19.8031794, 50.0242931], [19.799929, 50.0175115], [19.7923014, 50.0122454], [19.7956655, 49.9952854], [19.800228, 49.9957366], [19.8017101, 49.9934322], [19.8038601, 49.9943275], [19.8036124, 49.9929625], [19.8095342, 49.9921708], [19.8110141, 49.9944364], [19.8147548, 49.9944066], [19.8193439, 49.9969965], [19.8490132, 49.9948749], [19.8487785, 49.985191], [19.8623943, 49.9847094], [19.8644911, 49.9801428], [19.8624424, 49.9798256], [19.8629842, 49.9765687], [19.8606953, 49.9759097], [19.8675369, 49.9745267], [19.868826, 49.9726408], [19.8794366, 49.9714543], [19.8799765, 49.9740513], [19.8846945, 49.9761127], [19.8874026, 49.9803904], [19.9096517, 49.9819736], [19.9133442, 49.9798543], [19.9256973, 49.9813188], [19.9284075, 49.9791477], [19.9325897, 49.9787939], [19.9340521, 49.9755714], [19.9423929, 49.9740296], [19.9517147, 49.9695172], [19.9538055, 49.9700766], [19.9553879, 49.9677066], [19.9594519, 49.9692873], [19.9634362, 49.968628], [19.963093, 49.9723236], [19.9670402, 49.9731654], [19.9643, 49.9777467], [19.9778601, 49.9811697], [19.9825869, 49.9806997], [19.9812796, 49.9726303], [19.9972934, 49.9739454], [20.0011253, 49.9756835], [20.0082233, 49.9750835], [20.0097018, 49.9801825], [20.0186719, 49.9863158], [20.0122329, 49.9946847], [20.0032545, 49.9980064], [20.0062145, 50.0025748], [20.0182813, 50.0043264], [20.018814, 50.0031142], [20.0235983, 50.003012], [20.0284838, 49.9991784], [20.0288916, 50.0011012], [20.0356987, 50.0014096], [20.0473937, 49.9989794], [20.0482829, 50.0041695], [20.0551691, 50.0041137], [20.0607572, 50.0053316], [20.0630277, 50.0081322], [20.0656662, 50.0077881], [20.069756, 50.0183423], [20.0684331, 50.0219953], [20.0648646, 50.0242708], [20.0735681, 50.0321926], [20.0817144, 50.0342604], [20.0797312, 50.0358002], [20.0838074, 50.0378975], [20.0803266, 50.0407033], [20.0877132, 50.044784], [20.0922827, 50.0420709], [20.092179, 50.0380154], [20.0959551, 50.0369577], [20.1068556, 50.0424426], [20.1157537, 50.0425944], [20.1276645, 50.0398158], [20.1392936, 50.0459408], [20.1539572, 50.0430086], [20.1624143, 50.0431149], [20.187853, 50.0483481], [20.2011191, 50.0438637], [20.2057707, 50.043732], [20.2096194, 50.045107], [20.2173455, 50.053434], [20.2063581, 50.0650133], [20.1930122, 50.0704691], [20.1944545, 50.0734309], [20.1994603, 50.0748687], [20.1956059, 50.0763963], [20.1893085, 50.0847394], [20.1849381, 50.0859683], [20.1928422, 50.087817], [20.1916327, 50.0974844], [20.1961313, 50.1082614], [20.2050176, 50.1111306], [20.2090788, 50.1155647]]]}}]}