{"type": "FeatureCollection", "features": [{"type": "Feature", "properties": {"name": "Terrassa", "source": "geoBoundaries (gbOpen) ESP ADM3"}, "geometry": {"type": "Polygon", "coordinates": [[[2.044112900000073, 41.60388847000007], [2.028475420000063, 41.59361855000003], [2.020347920000063, 41.59675667000005], [2.021205080000072, 41.59991524000003], [2.002531790000035, 41.60722275000006], [1.99030115000005, 41.61474216000005], [1.989258840000048, 41.61724538000004], [1.98605021000003, 41.61717789000005], [1.979330230000073, 41.62338501000005], [1.982454620000055, 41.64831403000005], [1.971546600000067, 41.648823650000054], [1.971013510000034, 41.642373500000076], [1.975449140000023, 41.63810263000005], [1.975854560000073, 41.63526704000003], [1.970049910000057, 41.633448120000025], [1.966005550000034, 41.62986007000006], [1.954720950000024, 41.62448726000008], [1.953507880000075, 41.62087538000003], [1.956193190000022, 41.611152910000044], [1.953083, 41.606263530000035], [1.947403750000035, 41.60415890000007], [1.943576670000027, 41.60038957000006], [1.954935560000024, 41.59147224000003], [1.954560230000027, 41.58767110000008], [1.951824100000067, 41.58435908000007], [1.96081625000005, 41.57918067000003], [1.965722620000065, 41.57296316000003], [1.969623290000072, 41.572235970000065], [1.973679420000053, 41.57431089000005], [1.982510220000052, 41.57236995000005], [1.987821680000025, 41.56086706000008], [1.983046820000027, 41.554745410000066], [1.974778750000041, 41.549630430000036], [1.968882290000067, 41.543700830000034], [1.95817033000003, 41.53996894000005], [1.958776220000061, 41.538961380000046], [1.970234410000046, 41.538834490000056], [1.974106480000046, 41.534642140000074], [1.978297790000056, 41.53383005000006], [1.980365850000055, 41.535324830000036], [1.985749420000047, 41.535252970000045], [1.990087750000043, 41.53869259000004], [1.991482460000043, 41.54336760000007], [1.993982040000049, 41.54159318000006], [1.997097730000064, 41.54221374000008], [2.005202030000021, 41.532956160000026], [2.015819110000052, 41.53204216000006], [2.019469910000055, 41.53060398000008], [2.02044791000003, 41.52838241000006], [2.025668400000029, 41.52756856000008], [2.02830289000002, 41.52215024000003], [2.034393290000025, 41.51681430000008], [2.036484060000021, 41.52167423000003], [2.031498140000053, 41.52241525000005], [2.032558760000029, 41.52820275000005], [2.036397640000075, 41.525801460000025], [2.039339470000073, 41.52773395000003], [2.042102010000065, 41.52397529000007], [2.047328700000037, 41.52555503000008], [2.054644040000028, 41.52549396000006], [2.056070910000074, 41.52658347000005], [2.054591040000048, 41.529880810000066], [2.04992728000002, 41.53245406000008], [2.052016350000031, 41.534504800000036], [2.050724, 41.53667744000006], [2.053643220000026, 41.540150090000054], [2.057697810000036, 41.54066459000006], [2.062123580000048, 41.53887579000008], [2.066026980000061, 41.54251173000006], [2.060948980000035, 41.552819370000066], [2.065888280000024, 41.55360063000006], [2.06500434000003, 41.55532325000007], [2.066942200000028, 41.55619197000004], [2.06380273000002, 41.55788818000008], [2.068819120000057, 41.56071860000003], [2.067479130000038, 41.56258744000007], [2.063027410000075, 41.56360336000006], [2.065816520000055, 41.56814377000006], [2.06111973000003, 41.57047589000007], [2.065817310000057, 41.575499250000064], [2.06049304000004, 41.57763399000004], [2.06263819000003, 41.579150850000076], [2.05222507000002, 41.581230670000025], [2.046894620000046, 41.587137350000035], [2.050657240000021, 41.58955557000007], [2.053900470000031, 41.58808922000003], [2.062074210000048, 41.58771967000007], [2.059232260000044, 41.59522762000006], [2.044112900000073, 41.60388847000007]]]}}]}